CCSDS_OMM_VERS = 2.0
CREATION_DATE  = 
ORIGINATOR     = 

OBJECT_NAME    = STARLINK-36836
OBJECT_ID      = 2026-041AB
CENTER_NAME    = EARTH
REF_FRAME      = TEME
TIME_SYSTEM    = UTC
MEAN_ELEMENT_THEORY = SGP/SGP4

EPOCH          = 2026-03-14T06:00:02.000160
MEAN_MOTION    = 15.80870983
ECCENTRICITY   = .0001127
INCLINATION    = 53.1593
RA_OF_ASC_NODE = 39.0590
ARG_OF_PERICENTER = 67.4863
MEAN_ANOMALY   = 254.1325

EPHEMERIS_TYPE = 0
CLASSIFICATION_TYPE = U
NORAD_CAT_ID   = 68065
ELEMENT_SET_NO = 999
REV_AT_EPOCH   = 310
BSTAR          = -.78937447E-4
MEAN_MOTION_DOT = -.16248E-3
MEAN_MOTION_DDOT = 0

CCSDS_OMM_VERS = 2.0
CREATION_DATE  = 
ORIGINATOR     = 

OBJECT_NAME    = STARLINK-36976
OBJECT_ID      = 2026-041AC
CENTER_NAME    = EARTH
REF_FRAME      = TEME
TIME_SYSTEM    = UTC
MEAN_ELEMENT_THEORY = SGP/SGP4

EPOCH          = 2026-03-14T06:00:02.000160
MEAN_MOTION    = 15.80862593
ECCENTRICITY   = .0000804
INCLINATION    = 53.1592
RA_OF_ASC_NODE = 39.0502
ARG_OF_PERICENTER = 43.2812
MEAN_ANOMALY   = 282.6130

EPHEMERIS_TYPE = 0
CLASSIFICATION_TYPE = U
NORAD_CAT_ID   = 68066
ELEMENT_SET_NO = 999
REV_AT_EPOCH   = 310
BSTAR          = -.4066999E-5
MEAN_MOTION_DOT = -.15E-4
MEAN_MOTION_DDOT = 0

CCSDS_OMM_VERS = 2.0
CREATION_DATE  = 
ORIGINATOR     = 

OBJECT_NAME    = STARLINK-36929
OBJECT_ID      = 2026-041AD
CENTER_NAME    = EARTH
REF_FRAME      = TEME
TIME_SYSTEM    = UTC
MEAN_ELEMENT_THEORY = SGP/SGP4

EPOCH          = 2026-03-14T06:00:02.000160
MEAN_MOTION    = 15.80941155
ECCENTRICITY   = .00012174
INCLINATION    = 53.1591
RA_OF_ASC_NODE = 39.0680
ARG_OF_PERICENTER = 68.6522
MEAN_ANOMALY   = 248.6483

EPHEMERIS_TYPE = 0
CLASSIFICATION_TYPE = U
NORAD_CAT_ID   = 68067
ELEMENT_SET_NO = 999
REV_AT_EPOCH   = 310
BSTAR          = -.5478333E-3
MEAN_MOTION_DOT = -.107824E-2
MEAN_MOTION_DDOT = 0

CCSDS_OMM_VERS = 2.0
CREATION_DATE  = 
ORIGINATOR     = 

OBJECT_NAME    = STARLINK-36990
OBJECT_ID      = 2026-041AE
CENTER_NAME    = EARTH
REF_FRAME      = TEME
TIME_SYSTEM    = UTC
MEAN_ELEMENT_THEORY = SGP/SGP4

EPOCH          = 2026-03-14T06:00:02.000160
MEAN_MOTION    = 15.80872041
ECCENTRICITY   = .00008981
INCLINATION    = 53.1594
RA_OF_ASC_NODE = 39.0409
ARG_OF_PERICENTER = 38.1084
MEAN_ANOMALY   = 292.0504

EPHEMERIS_TYPE = 0
CLASSIFICATION_TYPE = U
NORAD_CAT_ID   = 68068
ELEMENT_SET_NO = 999
REV_AT_EPOCH   = 310
BSTAR          = -.79430154E-4
MEAN_MOTION_DOT = -.16344E-3
MEAN_MOTION_DDOT = 0

CCSDS_OMM_VERS = 2.0
CREATION_DATE  = 
ORIGINATOR     = 

OBJECT_NAME    = STARLINK-36766
OBJECT_ID      = 2026-042A
CENTER_NAME    = EARTH
REF_FRAME      = TEME
TIME_SYSTEM    = UTC
MEAN_ELEMENT_THEORY = SGP/SGP4

EPOCH          = 2026-03-14T06:00:02.000160
MEAN_MOTION    = 15.88734372
ECCENTRICITY   = .0000803
INCLINATION    = 53.1595
RA_OF_ASC_NODE = 171.9961
ARG_OF_PERICENTER = 85.8201
MEAN_ANOMALY   = 250.3767

EPHEMERIS_TYPE = 0
CLASSIFICATION_TYPE = U
NORAD_CAT_ID   = 68069
ELEMENT_SET_NO = 999
REV_AT_EPOCH   = 277
BSTAR          = -.55420728E-2
MEAN_MOTION_DOT = -.139649E-1
MEAN_MOTION_DDOT = 0

CCSDS_OMM_VERS = 2.0
CREATION_DATE  = 
ORIGINATOR     = 

OBJECT_NAME    = STARLINK-36823
OBJECT_ID      = 2026-042B
CENTER_NAME    = EARTH
REF_FRAME      = TEME
TIME_SYSTEM    = UTC
MEAN_ELEMENT_THEORY = SGP/SGP4

EPOCH          = 2026-03-14T06:00:02.000160
MEAN_MOTION    = 15.88850556
ECCENTRICITY   = .00008121
INCLINATION    = 53.1590
RA_OF_ASC_NODE = 171.9890
ARG_OF_PERICENTER = 96.0743
MEAN_ANOMALY   = 243.4579

EPHEMERIS_TYPE = 0
CLASSIFICATION_TYPE = U
NORAD_CAT_ID   = 68070
ELEMENT_SET_NO = 999
REV_AT_EPOCH   = 277
BSTAR          = -.55484198E-2
MEAN_MOTION_DOT = -.14051E-1
MEAN_MOTION_DDOT = 0

CCSDS_OMM_VERS = 2.0
CREATION_DATE  = 
ORIGINATOR     = 

OBJECT_NAME    = STARLINK-36970
OBJECT_ID      = 2026-042C
CENTER_NAME    = EARTH
REF_FRAME      = TEME
TIME_SYSTEM    = UTC
MEAN_ELEMENT_THEORY = SGP/SGP4

EPOCH          = 2026-03-14T06:00:02.000160
MEAN_MOTION    = 15.89084514
ECCENTRICITY   = .00008273
INCLINATION    = 53.1596
RA_OF_ASC_NODE = 171.9756
ARG_OF_PERICENTER = 96.3356
MEAN_ANOMALY   = 249.7510

EPHEMERIS_TYPE = 0
CLASSIFICATION_TYPE = U
NORAD_CAT_ID   = 68071
ELEMENT_SET_NO = 999
REV_AT_EPOCH   = 278
BSTAR          = -.55349118E-2
MEAN_MOTION_DOT = -.1416743E-1
MEAN_MOTION_DDOT = 0

CCSDS_OMM_VERS = 2.0
CREATION_DATE  = 
ORIGINATOR     = 

OBJECT_NAME    = STARLINK-36972
OBJECT_ID      = 2026-042D
CENTER_NAME    = EARTH
REF_FRAME      = TEME
TIME_SYSTEM    = UTC
MEAN_ELEMENT_THEORY = SGP/SGP4

EPOCH          = 2026-03-14T06:00:02.000160
MEAN_MOTION    = 15.88979950
ECCENTRICITY   = .00008561
INCLINATION    = 53.1596
RA_OF_ASC_NODE = 171.9828
ARG_OF_PERICENTER = 84.4148
MEAN_ANOMALY   = 258.1752

EPHEMERIS_TYPE = 0
CLASSIFICATION_TYPE = U
NORAD_CAT_ID   = 68072
ELEMENT_SET_NO = 999
REV_AT_EPOCH   = 278
BSTAR          = -.55164384E-2
MEAN_MOTION_DOT = -.1406115E-1
MEAN_MOTION_DDOT = 0

CCSDS_OMM_VERS = 2.0
CREATION_DATE  = 
ORIGINATOR     = 

OBJECT_NAME    = STARLINK-37074
OBJECT_ID      = 2026-042E
CENTER_NAME    = EARTH
REF_FRAME      = TEME
TIME_SYSTEM    = UTC
MEAN_ELEMENT_THEORY = SGP/SGP4

EPOCH          = 2026-03-14T06:00:02.000160
MEAN_MOTION    = 15.89203367
ECCENTRICITY   = .00008073
INCLINATION    = 53.1596
RA_OF_ASC_NODE = 171.9690
ARG_OF_PERICENTER = 84.0440
MEAN_ANOMALY   = 265.3546

EPHEMERIS_TYPE = 0
CLASSIFICATION_TYPE = U
NORAD_CAT_ID   = 68073
ELEMENT_SET_NO = 999
REV_AT_EPOCH   = 278
BSTAR          = -.55609375E-2
MEAN_MOTION_DOT = -.1430029E-1
MEAN_MOTION_DDOT = 0

CCSDS_OMM_VERS = 2.0
CREATION_DATE  = 
ORIGINATOR     = 

OBJECT_NAME    = STARLINK-37045
OBJECT_ID      = 2026-042F
CENTER_NAME    = EARTH
REF_FRAME      = TEME
TIME_SYSTEM    = UTC
MEAN_ELEMENT_THEORY = SGP/SGP4

EPOCH          = 2026-03-14T06:00:02.000160
MEAN_MOTION    = 15.89301495
ECCENTRICITY   = .00008446
INCLINATION    = 53.1593
RA_OF_ASC_NODE = 171.9616
ARG_OF_PERICENTER = 83.0083
MEAN_ANOMALY   = 269.8475

EPHEMERIS_TYPE = 0
CLASSIFICATION_TYPE = U
NORAD_CAT_ID   = 68074
ELEMENT_SET_NO = 999
REV_AT_EPOCH   = 278
BSTAR          = -.55421315E-2
MEAN_MOTION_DOT = -.1432079E-1
MEAN_MOTION_DDOT = 0

CCSDS_OMM_VERS = 2.0
CREATION_DATE  = 
ORIGINATOR     = 

OBJECT_NAME    = STARLINK-37026
OBJECT_ID      = 2026-042G
CENTER_NAME    = EARTH
REF_FRAME      = TEME
TIME_SYSTEM    = UTC
MEAN_ELEMENT_THEORY = SGP/SGP4

EPOCH          = 2026-03-14T06:00:02.000160
MEAN_MOTION    = 15.89395943
ECCENTRICITY   = .00006516
INCLINATION    = 53.1593
RA_OF_ASC_NODE = 171.9543
ARG_OF_PERICENTER = 96.3892
MEAN_ANOMALY   = 259.9789

EPHEMERIS_TYPE = 0
CLASSIFICATION_TYPE = U
NORAD_CAT_ID   = 68075
ELEMENT_SET_NO = 999
REV_AT_EPOCH   = 278
BSTAR          = -.55240292E-2
MEAN_MOTION_DOT = -.1433869E-1
MEAN_MOTION_DDOT = 0

CCSDS_OMM_VERS = 2.0
CREATION_DATE  = 
ORIGINATOR     = 

OBJECT_NAME    = STARLINK-37023
OBJECT_ID      = 2026-042H
CENTER_NAME    = EARTH
REF_FRAME      = TEME
TIME_SYSTEM    = UTC
MEAN_ELEMENT_THEORY = SGP/SGP4

EPOCH          = 2026-03-14T06:00:02.000160
MEAN_MOTION    = 15.89505039
ECCENTRICITY   = .00007795
INCLINATION    = 53.1593
RA_OF_ASC_NODE = 171.9475
ARG_OF_PERICENTER = 89.8765
MEAN_ANOMALY   = 269.8197

EPHEMERIS_TYPE = 0
CLASSIFICATION_TYPE = U
NORAD_CAT_ID   = 68076
ELEMENT_SET_NO = 999
REV_AT_EPOCH   = 278
BSTAR          = -.55156278E-2
MEAN_MOTION_DOT = -.1439033E-1
MEAN_MOTION_DDOT = 0

