STARLINK-36836          
1 68065U 26041AB  26073.25002315 -.00016248  00000+0 -78937-4 0  9994
2 68065  53.1593  39.0590 0001127  67.4863 254.1325 15.80870983  3109
STARLINK-36976          
1 68066U 26041AC  26073.25002315 -.00001500  00000+0 -40670-5 0  9994
2 68066  53.1592  39.0502 0000804  43.2812 282.6130 15.80862593  3107
STARLINK-36929          
1 68067U 26041AD  26073.25002315 -.00107824  00000+0 -54783-3 0  9999
2 68067  53.1591  39.0680 0001217  68.6522 248.6483 15.80941155  3107
STARLINK-36990          
1 68068U 26041AE  26073.25002315 -.00016344  00000+0 -79430-4 0  9993
2 68068  53.1594  39.0409 0000898  38.1084 292.0504 15.80872041  3103
STARLINK-36766          
1 68069U 26042A   26073.25002315 -.01396490  00000+0 -55421-2 0  9991
2 68069  53.1595 171.9961 0000803  85.8201 250.3767 15.88734372  2772
STARLINK-36823          
1 68070U 26042B   26073.25002315 -.01405100  00000+0 -55484-2 0  9991
2 68070  53.1590 171.9890 0000812  96.0743 243.4579 15.88850556  2772
STARLINK-36970          
1 68071U 26042C   26073.25002315 -.01416743  00000+0 -55349-2 0  9997
2 68071  53.1596 171.9756 0000827  96.3356 249.7510 15.89084514  2788
STARLINK-36972          
1 68072U 26042D   26073.25002315 -.01406115  00000+0 -55164-2 0  9995
2 68072  53.1596 171.9828 0000856  84.4148 258.1752 15.88979950  2786
STARLINK-37074          
1 68073U 26042E   26073.25002315 -.01430029  00000+0 -55609-2 0  9991
2 68073  53.1596 171.9690 0000807  84.0440 265.3546 15.89203367  2785
STARLINK-37045          
1 68074U 26042F   26073.25002315 -.01432079  00000+0 -55421-2 0  9991
2 68074  53.1593 171.9616 0000844  83.0083 269.8475 15.89301495  2785
STARLINK-37026          
1 68075U 26042G   26073.25002315 -.01433869  00000+0 -55240-2 0  9999
2 68075  53.1593 171.9543 0000651  96.3892 259.9789 15.89395943  2785
STARLINK-37023          
1 68076U 26042H   26073.25002315 -.01439033  00000+0 -55156-2 0  9995
2 68076  53.1593 171.9475 0000779  89.8765 269.8197 15.89505039  2789
